SL-14 DEB
1 45285U 91056X   22004.55955070 -.00000081  00000-0 -30563-3 0  9990
2 45285  82.5663 222.9221 0109598  45.8505 315.1554 12.99437454 89138
SL-14 DEB
1 45286U 91056Y   22005.60796989 -.00000171  00000-0 -48833-3 0  9999
2 45286  82.6282 213.4993 0023980 270.7332  89.1042 13.15046415 90342
SL-14 DEB
1 45287U 91056Z   22005.54004772  .00000276  00000-0  54919-3 0  9991
2 45287  82.5712 195.6206 0068120 124.6193 236.1386 13.30740918 91404
SL-14 DEB
1 45288U 91056AA  22005.04542437  .00001437  00000-0  57372-2 0  9997
2 45288  82.6327 242.9942 0209065 103.2463 259.2049 12.79673612 87819
SL-14 DEB
1 45289U 91056AB  22005.58083778 -.00000276  00000-0 -11487-2 0  9994
2 45289  82.5366 234.0221 0174420  75.5462 286.4924 12.82559151 88089
SL-14 DEB
1 45290U 91056AC  22005.50411721  .00000706  00000-0  13719-2 0  9997
2 45290  82.6300 198.6069 0125542 168.2421 192.1691 13.32285276 91449
SL-14 DEB
1 45291U 91056AD  22005.52961457 -.00000382  00000-0 -11344-2 0  9990
2 45291  82.5482 212.1205 0039544   1.7273 358.3974 13.09746171 89937
SL-14 DEB
1 45292U 91056AE  22005.01882061  .00001660  00000-0  36001-2 0  9993
2 45292  82.6375 204.5799 0098591  42.2535 318.6136 13.26887163 90983
SL-14 DEB
1 45293U 91056AF  22005.43032516  .00002839  00000-0  28954-2 0  9999
2 45293  82.5723 168.5719 0269299  63.0582 299.7802 13.61631454 93340
SL-14 DEB
1 45294U 91056AG  22003.30120205  .00000511  00000-0  12787-2 0  9999
2 45294  82.5686 208.2840 0014161 261.4671  98.4847 13.17920966 89321
SL-14 DEB
1 45295U 91056AH  22005.52673913  .00000633  00000-0  12102-2 0  9991
2 45295  82.5744 192.1629 0080576 106.0637 254.9387 13.34841030 90752
SL-14 DEB
1 45296U 91056AJ  22005.54028434  .00001862  00000-0  21865-2 0  9997
2 45296  82.6546 177.3552 0214821  38.7020 322.9297 13.58407000 92303
SL-14 DEB
1 45297U 91056AK  22005.78592713  .00001883  00000-0  59037-2 0  9995
2 45297  82.5923 222.2383 0086227  24.8566 335.6664 13.02419407 88523
SL-14 DEB
1 45298U 91056AL  22005.56775752  .00001352  00000-0  18998-2 0  9990
2 45298  82.5859 180.2196 0181967  86.7708 275.4233 13.49928091 91712
SL-14 DEB
1 45299U 91056AM  22005.64745591  .00001801  00000-0  53071-2 0  9998
2 45299  82.5878 217.8232 0090115  50.2604 310.6408 13.06550361 90244
SL-14 DEB
1 45300U 91056AN  22005.62347549  .00000287  00000-0  97848-3 0  9998
2 45300  82.5555 227.0492 0126669  38.6194 322.3890 12.92740235 87918
SL-14 DEB
1 45301U 91056AP  22005.49800091  .00002133  00000-0  32109-2 0  9990
2 45301  82.5050 175.2749 0138815  31.9470 328.9993 13.48637622 93142
SL-14 DEB
1 45302U 91056AQ  22005.51396662  .00002725  00000-0  50302-2 0  9990
2 45302  82.5942 194.7439 0161088 177.0501 183.1622 13.34632973 92160
SL-14 DEB
1 45303U 91056AR  22005.48485251  .00003601  00000-0  44211-2 0  9996
2 45303  82.6510 178.3363 0180928  21.4836 339.3779 13.58596310 92241
SL-14 DEB
1 45304U 91056AS  22004.30178877  .00002505  00000-0  69638-2 0  9992
2 45304  82.6962 225.0973 0127522 312.2895  46.7468 13.09351303 88793
SL-14 DEB
1 45305U 91056AT  22005.53705817  .00001087  00000-0  25354-2 0  9990
2 45305  82.5694 201.9934 0014764  99.5666 260.7129 13.23478907 89956
SL-14 DEB
1 45306U 91056AU  22005.56575599  .00001349  00000-0  24705-2 0  9996
2 45306  82.6441 196.7636 0120941 141.6001 219.3819 13.36861428 92302
SL-14 DEB
1 45307U 91056AV  22005.69699045  .00005863  00000-0  20189-1 0  9990
2 45307  82.6007 230.2948 0187115  81.8563 280.3723 12.91789659 87801
SL-14 DEB
1 45308U 91056AW  22005.27415565  .00000195  00000-0  44685-3 0  9990
2 45308  82.5749 204.5109 0025822 189.2832 170.7819 13.21111348 89791
SL-14 DEB
1 45309U 91056AX  22005.58041919  .00003094  00000-0  88395-2 0  9999
2 45309  82.6018 217.7661 0145294  36.3266 324.7607 13.06714564 90295
SL-14 DEB
1 45310U 91056AY  22005.57746349  .00000088  00000-0  25681-3 0  9999
2 45310  82.5965 226.2306 0104250  40.6256 320.2574 12.97191089 88215
SL-14 DEB
1 45311U 91056AZ  22005.59586430  .00000074  00000-0  15775-3 0  9993
2 45311  82.5488 204.8286 0016994 218.3338 141.6578 13.18247339 89648
SL-14 DEB
1 45312U 91056BA  22005.58656513  .00000262  00000-0  64370-3 0  9997
2 45312  82.5196 203.1886 0014152 245.9180 114.0463 13.17713253 90515
SL-14 DEB
1 45313U 91056BB  22005.53390403  .00001526  00000-0  27312-2 0  9994
2 45313  82.5845 189.4634 0097269  88.7670 272.4607 13.39360627 90898
SL-14 DEB
1 45314U 91056BC  22005.29986972 -.00000489  00000-0 -14622-2 0  9999
2 45314  82.5386 212.4892 0052944 325.8370  33.9344 13.08588848 88826
SL-14 DEB
1 45315U 91056BD  22005.57419989 -.00000094  00000-0 -28521-3 0  9996
2 45315  82.5601 209.0428 0030866 280.6642  79.1003 13.14224930 89240
SL-14 DEB
1 45316U 91056BE  22005.61258444  .00000540  00000-0  11366-2 0  9991
2 45316  82.5955 200.0610 0109484 183.0068 177.0416 13.27376957 91204
SL-14 DEB
1 45317U 91056BF  22003.00793080  .00003036  00000-0  21231-1 0  9997
2 45317  82.7292 273.5733 0082322 205.3220 154.3817 12.44180392 84064
SL-14 DEB
1 45318U 91056BG  22005.52475033  .00000178  00000-0  42042-3 0  9991
2 45318  82.5691 206.2524 0009630 206.5933 153.4697 13.18429999 89514
SL-14 DEB
1 45319U 91056BH  22005.53641924  .00000616  00000-0  11832-2 0  9996
2 45319  82.5835 193.3587 0082216 105.2674 255.7566 13.34394430 90329
SL-14 DEB
1 45320U 91056BJ  22005.50824955  .00000357  00000-0  68133-3 0  9991
2 45320  82.5682 192.7804 0079910 107.8938 253.0928 13.33743416 90283
SL-14 DEB
1 45321U 91056BK  22005.53367273  .00000103  00000-0  22817-3 0  9998
2 45321  82.5608 205.1444 0022144 210.4044 149.5797 13.18939031 89292
SL-14 DEB
1 45322U 91056BL  22005.52648640  .00004277  00000-0  45081-2 0  9991
2 45322  82.6650 171.3112 0179162 359.3562   0.7330 13.67762070 92429
SL-14 DEB
1 45323U 91056BM  22005.58606884  .00000245  00000-0  59261-3 0  9999
2 45323  82.5309 203.4022 0007001 249.1620 110.8753 13.18457133 89256
SL-14 DEB
1 45324U 91056BN  22004.78354470  .00000104  00000-0  22773-3 0  9994
2 45324  82.5455 203.4455 0024677 190.8390 169.2206 13.20196565 91114
SL-14 DEB
1 45325U 91056BP  22005.50886491  .00003640  00000-0  37986-2 0  9998
2 45325  82.5773 166.5642 0228613 359.4279   0.6573 13.64317939 92192
SL-14 DEB
1 45326U 91056BQ  22001.59155887  .00000435  00000-0  10094-2 0  9992
2 45326  82.5914 207.2907 0032515 190.8032 169.2399 13.22462758 90869
SL-14 DEB
1 45327U 91056BR  22003.79168796  .00000605  00000-0  11451-2 0  9997
2 45327  82.5681 192.5323 0080322 112.1214 248.8470 13.35445450 92182
SL-14 DEB
1 45328U 91056BS  22005.49056066  .00000620  00000-0  10614-2 0  9990
2 45328  82.5523 185.3174 0112401  87.6417 273.7582 13.40729911 90741
SL-14 DEB
1 45330U 91056BU  22005.48202522  .00000598  00000-0  11509-2 0  9990
2 45330  82.5674 192.2370 0079125 108.7534 252.2205 13.34382089 92128
SL-14 DEB
1 45331U 91056BV  22005.08804942  .00004271  00000-0  16882-1 0  9991
2 45331  82.6828 245.5528 0200222  91.9109 270.4935 12.81340472 86668
SL-14 DEB
1 45332U 91056BW  22005.57973996 -.00000355  00000-0 -99104-3 0  9993
2 45332  82.5513 210.1679 0110309 268.8091  90.0390 13.12250513 88456
SL-14 DEB
1 45334U 91056BY  22004.76917108  .00000166  00000-0  34747-3 0  9998
2 45334  82.5552 199.4866 0043119 148.3943 211.9787 13.25637294 90120
SL-14 DEB
1 45336U 91056CA  22005.55250224  .00000537  00000-0  11672-2 0  9990
2 45336  82.5798 199.5761 0046076 151.7746 208.5893 13.26968172 90104
SL-14 DEB
1 45337U 91056CB  22005.57088196  .00000540  00000-0  14788-2 0  9995
2 45337  82.5770 212.7226 0044666  34.9602 325.4436 13.11553756 88409
SL-14 DEB
1 45338U 91056CC  22005.46979670  .00002387  00000-0  34921-2 0  9992
2 45338  82.5929 182.6078 0179421 100.8502 261.2887 13.47933427 90660
SL-14 DEB
1 45339U 91056CD  22005.47564645  .00002598  00000-0  41893-2 0  9996
2 45339  82.5283 179.3029 0104001  73.7989 287.4564 13.45984459 90483
SL-14 DEB
1 45340U 91056CE  22005.58726925  .00002253  00000-0  55501-2 0  9990
2 45340  82.5662 206.2718 0111080  44.1825 316.8103 13.18112110 88667
BEIDOU 3 G2
1 45344U 20017A   22005.54842377 -.00000143  00000-0  00000-0 0  9998
2 45344   2.1980 344.4968 0000343 140.3917 257.6981  1.00271844  6983
CZ-3B R/B
1 45345U 20017B   22004.75309054  .00025611  10004-5  95350-3 0  9992
2 45345  28.1749  57.2839 6870609 285.9847  12.7599  2.85908730 17011
SL-14 DEB
1 45346U 91056CF  22005.52676474  .00001534  00000-0  35126-2 0  9995
2 45346  82.6410 207.1987 0083575  33.2112 327.4220 13.23757095 88894
SL-14 DEB
1 45347U 91056CG  22005.45843862  .00002842  00000-0  38392-2 0  9996
2 45347  82.6643 182.8931 0167845  68.6381 293.2581 13.53636176 93282
SL-14 DEB
1 45348U 91056CH  22004.30088608  .00000047  00000-0  87488-4 0  9996
2 45348  82.5657 206.2519 0020691 205.5380 154.4724 13.19095109 88714
SL-12 DEB
1 45349U 10041AN  22001.40948464  .00340353  00000-0  52502-1 0  9998
2 45349  64.3621 306.8455 5535561  31.4591 352.1601  4.76377783 57184
SL-14 DEB
1 45350U 91056CJ  22003.83199382  .00000279  00000-0  65706-3 0  9993
2 45350  82.5887 207.2901 0032249  75.3695 285.1001 13.20279014 91177
SL-14 DEB
1 45355U 91056CP  22005.56699172  .00001065  00000-0  34413-2 0  9996
2 45355  82.5954 225.5710 0110108 357.8154   2.2462 12.99249560 86561
SL-14 DEB
1 45356U 91056CQ  22005.57105173  .00000217  00000-0  46699-3 0  9999
2 45356  82.6143 203.7573 0039316 136.0577 224.3688 13.25190878 89258
SL-14 DEB
1 45357U 91056CR  22005.51970370  .00000570  00000-0  11355-2 0  9995
2 45357  82.5677 194.1794 0074751 129.2776 231.5018 13.32135201 89697
COSMOS 2545 (GLONASS)
1 45358U 20018A   22005.74440985 -.00000063  00000-0  00000+0 0  9995
2 45358  64.9197   8.9355 0011509 252.2656 230.4764  2.13102724 14066
FREGAT R/B
1 45359U 20018B   22005.53803548 -.00000064  00000-0  00000+0 0  9992
2 45359  64.9010  10.0037 0061382 137.0855 223.4177  2.07972431 13733
